0 BREEZE-M DEB
1 38643U 08011CS  13282.62350655 -.00002030  00000-0 -24622-1 0  2405
2 38643 049.2959 174.1359 6483095 249.2286 289.8238 03.07166899 28045
0 BREEZE-M DEB
1 38643U 08011CS  13283.29972836 -.00001903  00000-0 -22892-1 0  2416
2 38643 049.2962 173.8973 6483831 249.4339 317.6193 03.07156961 28078
0 BREEZE-M DEB
1 38643U 08011CS  13292.09247935 -.00002355  00000-0 -30742-1 0  2425
2 38643 049.3110 170.8143 6476227 252.0189 319.8036 03.07130034 28347
0 BREEZE-M DEB
1 38643U 08011CS  13293.41261372 -.00001848  00000-0 -24698-1 0  2433
2 38643 049.3112 170.3480 6474853 252.4205 339.4002 03.07123147 28386
